OBJECT_NAME,OBJECT_ID,EPOCH,MEAN_MOTION,ECCENTRICITY,INCLINATION,RA_OF_ASC_NODE,ARG_OF_PERICENTER,MEAN_ANOMALY,EPHEMERIS_TYPE,CLASSIFICATION_TYPE,NORAD_CAT_ID,ELEMENT_SET_NO,REV_AT_EPOCH,BSTAR,MEAN_MOTION_DOT,MEAN_MOTION_DDOT
STARLINK-30398,2023-138H,2026-07-17T09:36:58.313952,15.27576109,.00018013,43.0014,221.8409,272.8780,87.1866,0,U,57815,999,15847,.20686053E-4,.307E-5,0
STARLINK-30386,2023-138J,2026-07-17T11:16:40.922976,15.27577110,.00018445,43.0022,221.5031,272.8543,87.2097,0,U,57816,999,15840,.18166908E-4,.238E-5,0
STARLINK-30391,2023-138K,2026-07-17T09:48:05.918976,15.27574244,.00016631,42.9988,221.8956,283.4448,76.6218,0,U,57817,999,15857,.37693546E-3,.10123E-3,0
STARLINK-30401,2023-138L,2026-07-17T03:35:08.826144,15.27576966,.00015122,43.0011,223.3851,273.9022,86.1657,0,U,57818,999,15843,.17374308E-4,.216E-5,0
STARLINK-30390,2023-138M,2026-07-17T02:06:32.441472,15.27579207,.00015035,43.0007,223.7909,270.7747,89.2933,0,U,57819,999,15846,.23918274E-4,.396E-5,0
STARLINK-30409,2023-138N,2026-07-17T10:30:25.087968,15.27580484,.00017971,43.0036,221.2431,273.5027,86.5619,0,U,57820,999,15852,.17129683E-4,.209E-5,0
STARLINK-30415,2023-138P,2026-07-17T13:22:17.611392,15.27575377,.00013764,43.0005,221.2891,271.1421,88.9273,0,U,57821,999,15859,-.2035243E-5,-.318E-5,0
STARLINK-30407,2023-138R,2026-07-17T11:06:01.582848,15.27578238,.00008186,42.9994,115.8930,273.8838,86.1920,0,U,57823,999,15981,-.32598343E-4,-.1159E-4,0
STARLINK-30408,2023-138S,2026-07-17T10:24:52.297632,15.27575708,.00013812,43.0011,221.2302,273.7725,86.2969,0,U,57824,999,15857,.6791042E-5,-.75E-6,0
STARLINK-30377,2023-138T,2026-07-17T10:23:01.137120,15.27574793,.00011426,42.9988,221.2199,289.5182,70.5546,0,U,57825,999,15847,-.79531902E-4,-.2449E-4,0
STARLINK-30422,2023-138U,2026-07-17T09:22:09.639840,15.27581777,.0002173,43.0048,221.7635,284.6076,75.4534,0,U,57826,999,15856,-.46724067E-4,-.1548E-4,0
STARLINK-30402,2023-138V,2026-07-17T10:41:31.649280,15.27573986,.00015935,43.0029,221.3188,275.0194,85.0476,0,U,57827,999,15857,-.7313886E-5,-.463E-5,0
STARLINK-30411,2023-138W,2026-07-17T10:35:57.880032,15.27577434,.00012756,43.0023,221.2662,276.4410,83.6297,0,U,57828,999,15851,.1546036E-5,-.22E-5,0
STARLINK-30418,2023-138X,2026-07-17T10:28:34.656672,15.27582934,.0001488,43.0014,221.2465,276.4702,83.5980,0,U,57829,999,15841,.12766964E-4,.89E-6,0
YAOGAN-40 01A,2023-139A,2026-07-17T14:46:18.217632,14.12452674,.00023515,85.9889,246.3003,93.8021,266.3431,0,U,57830,999,14699,.32768527E-4,.79E-6,0
YAOGAN-40 01B,2023-139C,2026-07-17T14:46:31.781568,14.12453069,.00024553,85.9888,246.2778,92.9873,267.1592,0,U,57832,999,14700,.39884145E-4,.92E-6,0
YAOGAN-40 01C,2023-139D,2026-07-17T14:46:24.579264,14.12451296,.00020863,85.9892,245.5644,72.5550,287.5861,0,U,57833,999,14710,-.17688137E-4,-.14E-6,0
STARLINK-30285,2023-141A,2026-07-17T13:34:09.708960,15.31701427,.00010959,53.1609,40.0685,111.1803,248.9316,0,U,57840,999,16022,.6261695E-4,.1579E-4,0
STARLINK-30410,2023-141B,2026-07-17T10:39:38.650176,15.31700027,.00012405,53.1609,40.5463,89.7949,270.3194,0,U,57841,999,16020,.30651399E-4,.586E-5,0
STARLINK-30435,2023-141C,2026-07-17T12:40:29.999136,15.31701348,.00012294,53.1603,40.3929,100.0120,260.1020,0,U,57842,999,16021,.12490469E-4,.22E-6,0
STARLINK-30423,2023-141D,2026-07-17T06:11:12.164352,15.31705780,.00013101,53.1621,41.5045,91.7673,268.3478,0,U,57843,999,16017,.49104084E-4,.1159E-4,0
STARLINK-30292,2023-141E,2026-07-17T06:36:30.620160,15.30187699,.0001475,53.1618,41.8236,93.6479,266.4690,0,U,57844,999,16017,.11640917E-4,-.15E-6,0
STARLINK-30416,2023-141H,2026-07-17T13:54:19.294272,15.31703436,.00011384,53.1599,40.1293,102.7297,257.3831,0,U,57847,999,16022,.24692069E-4,.401E-5,0
STARLINK-30426,2023-141J,2026-07-17T06:30:32.434272,15.30192425,.000121,53.1603,42.2592,94.6922,265.4217,0,U,57848,999,16016,.57347954E-4,.1339E-4,0
STARLINK-30430,2023-141K,2026-07-17T14:07:46.095744,15.31699992,.00010692,53.1603,40.2290,87.5020,272.6104,0,U,57849,999,16022,-.28010711E-4,-.1234E-4,0
STARLINK-30425,2023-141L,2026-07-17T14:25:21.997056,15.30190955,.00013979,53.1618,40.7711,96.2950,263.8210,0,U,57850,999,16021,.254125E-5,-.284E-5,0
STARLINK-30405,2023-141M,2026-07-16T23:35:13.649568,15.31704496,.00013081,53.1610,42.7885,87.9278,272.1873,0,U,57851,999,16013,.23609386E-4,.368E-5,0
STARLINK-30431,2023-141N,2026-07-17T13:00:19.360800,15.30179393,.00014551,53.1609,40.6407,102.4512,257.6652,0,U,57852,999,16020,.46869684E-4,.1028E-4,0
STARLINK-30404,2023-141P,2026-07-17T06:38:01.779072,15.30186570,.00012338,53.1607,41.8257,73.4644,286.6492,0,U,57853,999,16017,-.14892331E-4,-.8E-5,0
STARLINK-30412,2023-141Q,2026-07-17T13:09:26.563104,15.30186349,.0001548,53.1617,40.6813,75.9831,284.1342,0,U,57854,999,16021,-.1254621E-4,-.731E-5,0
