STARLINK-30398          
1 57815U 23138H   26198.40067493  .00000307  00000+0  20686-4 0  9997
2 57815  43.0014 221.8409 0001801 272.8780  87.1866 15.27576109158474
STARLINK-30386          
1 57816U 23138J   26198.46991809  .00000238  00000+0  18167-4 0  9995
2 57816  43.0022 221.5031 0001844 272.8543  87.2097 15.27577110158409
STARLINK-30391          
1 57817U 23138K   26198.40840184  .00010123  00000+0  37694-3 0  9998
2 57817  42.9988 221.8956 0001663 283.4448  76.6218 15.27574244158579
STARLINK-30401          
1 57818U 23138L   26198.14940771  .00000216  00000+0  17374-4 0  9999
2 57818  43.0011 223.3851 0001512 273.9022  86.1657 15.27576966158436
STARLINK-30390          
1 57819U 23138M   26198.08787548  .00000396  00000+0  23918-4 0  9994
2 57819  43.0007 223.7909 0001503 270.7747  89.2933 15.27579207158464
STARLINK-30409          
1 57820U 23138N   26198.43779037  .00000209  00000+0  17130-4 0  9991
2 57820  43.0036 221.2431 0001797 273.5027  86.5619 15.27580484158525
STARLINK-30415          
1 57821U 23138P   26198.55714828 -.00000318  00000+0 -20352-5 0  9996
2 57821  43.0005 221.2891 0001376 271.1421  88.9273 15.27575377158591
STARLINK-30407          
1 57823U 23138R   26198.46251832 -.00001159  00000+0 -32598-4 0  9997
2 57823  42.9994 115.8930 0000818 273.8838  86.1920 15.27578238159815
STARLINK-30408          
1 57824U 23138S   26198.43393863 -.00000075  00000+0  67910-5 0  9998
2 57824  43.0011 221.2302 0001381 273.7725  86.2969 15.27575708158578
STARLINK-30377          
1 57825U 23138T   26198.43265205 -.00002449  00000+0 -79532-4 0  9997
2 57825  42.9988 221.2199 0001142 289.5182  70.5546 15.27574793158470
STARLINK-30422          
1 57826U 23138U   26198.39038935 -.00001548  00000+0 -46724-4 0  9997
2 57826  43.0048 221.7635 0002173 284.6076  75.4534 15.27581777158564
STARLINK-30402          
1 57827U 23138V   26198.44550520 -.00000463  00000+0 -73139-5 0  9999
2 57827  43.0029 221.3188 0001593 275.0194  85.0476 15.27573986158579
STARLINK-30411          
1 57828U 23138W   26198.44164213 -.00000220  00000+0  15460-5 0  9993
2 57828  43.0023 221.2662 0001275 276.4410  83.6297 15.27577434158514
STARLINK-30418          
1 57829U 23138X   26198.43651223  .00000089  00000+0  12767-4 0  9993
2 57829  43.0014 221.2465 0001488 276.4702  83.5980 15.27582934158414
YAOGAN-40 01A           
1 57830U 23139A   26198.61548863  .00000079  00000+0  32769-4 0  9994
2 57830  85.9889 246.3003 0002351  93.8021 266.3431 14.12452674146994
YAOGAN-40 01B           
1 57832U 23139C   26198.61564562  .00000092  00000+0  39884-4 0  9990
2 57832  85.9888 246.2778 0002455  92.9873 267.1592 14.12453069147002
YAOGAN-40 01C           
1 57833U 23139D   26198.61556226 -.00000014  00000+0 -17688-4 0  9993
2 57833  85.9892 245.5644 0002086  72.5550 287.5861 14.12451296147104
STARLINK-30285          
1 57840U 23141A   26198.56539015  .00001579  00000+0  62617-4 0  9992
2 57840  53.1609  40.0685 0001095 111.1803 248.9316 15.31701427160228
STARLINK-30410          
1 57841U 23141B   26198.44419734  .00000586  00000+0  30651-4 0  9995
2 57841  53.1609  40.5463 0001240  89.7949 270.3194 15.31700027160207
STARLINK-30435          
1 57842U 23141C   26198.52812499  .00000022  00000+0  12490-4 0  9996
2 57842  53.1603  40.3929 0001229 100.0120 260.1020 15.31701348160215
STARLINK-30423          
1 57843U 23141D   26198.25777968  .00001159  00000+0  49104-4 0  9992
2 57843  53.1621  41.5045 0001310  91.7673 268.3478 15.31705780160174
STARLINK-30292          
1 57844U 23141E   26198.27535440 -.00000015  00000+0  11641-4 0  9998
2 57844  53.1618  41.8236 0001475  93.6479 266.4690 15.30187699160170
STARLINK-30416          
1 57847U 23141H   26198.57938998  .00000401  00000+0  24692-4 0  9997
2 57847  53.1599  40.1293 0001138 102.7297 257.3831 15.31703436160228
STARLINK-30426          
1 57848U 23141J   26198.27120873  .00001339  00000+0  57348-4 0  9995
2 57848  53.1603  42.2592 0001210  94.6922 265.4217 15.30192425160165
STARLINK-30430          
1 57849U 23141K   26198.58872796 -.00001234  00000+0 -28011-4 0  9999
2 57849  53.1603  40.2290 0001069  87.5020 272.6104 15.31699992160225
STARLINK-30425          
1 57850U 23141L   26198.60094904 -.00000284  00000+0  25413-5 0  9998
2 57850  53.1618  40.7711 0001397  96.2950 263.8210 15.30190955160212
STARLINK-30405          
1 57851U 23141M   26197.98279687  .00000368  00000+0  23609-4 0  9998
2 57851  53.1610  42.7885 0001308  87.9278 272.1873 15.31704496160132
STARLINK-30431          
1 57852U 23141N   26198.54189075  .00001028  00000+0  46870-4 0  9992
2 57852  53.1609  40.6407 0001455 102.4512 257.6652 15.30179393160207
STARLINK-30404          
1 57853U 23141P   26198.27640948 -.00000800  00000+0 -14892-4 0  9992
2 57853  53.1607  41.8257 0001233  73.4644 286.6492 15.30186570160174
STARLINK-30412          
1 57854U 23141Q   26198.54822411 -.00000731  00000+0 -12546-4 0  9997
2 57854  53.1617  40.6813 0001548  75.9831 284.1342 15.30186349160211
